{
  "type": "FeatureCollection",
  "features": [
    {
      "type": "Feature",
      "properties": {
        "norad_id": 34314,
        "name": "COSMOS 2251 DEB",
        "group": "cosmos-2251-debris",
        "lat": -2.0643029999022504,
        "lon": 134.92254583412785,
        "alt_km": 874.782363545607,
        "timestamp": "2025-12-09T09:46:48.039617+00:00",
        "meta_object_name": "COSMOS 2251 DEB",
        "meta_object_id": "1993-036NL",
        "meta_epoch": "2025-12-08T23:02:59.559648",
        "meta_mean_motion": 14.1740962,
        "meta_eccentricity": 0.01027175,
        "meta_inclination": 74.0069,
        "meta_ra_of_asc_node": 315.1277,
        "meta_arg_of_pericenter": 61.7458,
        "meta_mean_anomaly": 358.8259,
        "meta_ephemeris_type": 0,
        "meta_classification_type": "U",
        "meta_norad_cat_id": 34314,
        "meta_element_set_no": 999,
        "meta_rev_at_epoch": 86604,
        "meta_bstar": 0.00083546507,
        "meta_mean_motion_dot": 1.758e-05,
        "meta_mean_motion_ddot": 0,
        "tle_line1": "1 34314U 93036NL  25342.96041157  .00001758  00000+0  83547-3 0  9995",
        "tle_line2": "2 34314  74.0069 315.1277 0102717  61.7458 358.8259 14.17409620866046"
      },
      "geometry": {
        "type": "Point",
        "coordinates": [
          134.92254583412785,
          -2.0643029999022504
        ]
      }
    },
    {
      "type": "Feature",
      "properties": {
        "norad_id": 34316,
        "name": "COSMOS 2251 DEB",
        "group": "cosmos-2251-debris",
        "lat": -20.981719296501836,
        "lon": 169.854327692218,
        "alt_km": 601.4788609620618,
        "timestamp": "2025-12-09T09:46:48.039627+00:00",
        "meta_object_name": "COSMOS 2251 DEB",
        "meta_object_id": "1993-036NN",
        "meta_epoch": "2025-12-08T10:20:39.026400",
        "meta_mean_motion": 14.91626759,
        "meta_eccentricity": 0.00080718,
        "meta_inclination": 74.0659,
        "meta_ra_of_asc_node": 345.5186,
        "meta_arg_of_pericenter": 71.6638,
        "meta_mean_anomaly": 288.5422,
        "meta_ephemeris_type": 0,
        "meta_classification_type": "U",
        "meta_norad_cat_id": 34316,
        "meta_element_set_no": 999,
        "meta_rev_at_epoch": 89145,
        "meta_bstar": 0.0020361205,
        "meta_mean_motion_dot": 0.00020489,
        "meta_mean_motion_ddot": 0,
        "tle_line1": "1 34316U 93036NN  25342.43100725  .00020489  00000+0  20361-2 0  9992",
        "tle_line2": "2 34316  74.0659 345.5186 0008071  71.6638 288.5422 14.91626759891457"
      },
      "geometry": {
        "type": "Point",
        "coordinates": [
          169.854327692218,
          -20.981719296501836
        ]
      }
    },
    {
      "type": "Feature",
      "properties": {
        "norad_id": 34317,
        "name": "COSMOS 2251 DEB",
        "group": "cosmos-2251-debris",
        "lat": 23.488893936301917,
        "lon": 48.44258755364238,
        "alt_km": 768.9255533209935,
        "timestamp": "2025-12-09T09:46:48.039638+00:00",
        "meta_object_name": "COSMOS 2251 DEB",
        "meta_object_id": "1993-036NP",
        "meta_epoch": "2025-12-08T14:54:33.681024",
        "meta_mean_motion": 13.65116838,
        "meta_eccentricity": 0.033639,
        "meta_inclination": 73.9248,
        "meta_ra_of_asc_node": 42.5379,
        "meta_arg_of_pericenter": 32.5997,
        "meta_mean_anomaly": 89.78,
        "meta_ephemeris_type": 0,
        "meta_classification_type": "U",
        "meta_norad_cat_id": 34317,
        "meta_element_set_no": 999,
        "meta_rev_at_epoch": 83563,
        "meta_bstar": 0.0006279,
        "meta_mean_motion_dot": 7.27e-06,
        "meta_mean_motion_ddot": 0,
        "tle_line1": "1 34317U 93036NP  25342.62122316  .00000727  00000+0  62790-3 0  9990",
        "tle_line2": "2 34317  73.9248  42.5379 0336390  32.5997  89.7800 13.65116838835631"
      },
      "geometry": {
        "type": "Point",
        "coordinates": [
          48.44258755364238,
          23.488893936301917
        ]
      }
    },
    {
      "type": "Feature",
      "properties": {
        "norad_id": 34321,
        "name": "COSMOS 2251 DEB",
        "group": "cosmos-2251-debris",
        "lat": 46.82759626607091,
        "lon": -35.1527994006513,
        "alt_km": 731.687491285903,
        "timestamp": "2025-12-09T09:46:48.039661+00:00",
        "meta_object_name": "COSMOS 2251 DEB",
        "meta_object_id": "1993-036NT",
        "meta_epoch": "2025-12-08T23:48:09.004032",
        "meta_mean_motion": 14.50028906,
        "meta_eccentricity": 0.00157413,
        "meta_inclination": 74.028,
        "meta_ra_of_asc_node": 163.4032,
        "meta_arg_of_pericenter": 293.1492,
        "meta_mean_anomaly": 188.2253,
        "meta_ephemeris_type": 0,
        "meta_classification_type": "U",
        "meta_norad_cat_id": 34321,
        "meta_element_set_no": 999,
        "meta_rev_at_epoch": 88432,
        "meta_bstar": 0.00071770152,
        "meta_mean_motion_dot": 2.759e-05,
        "meta_mean_motion_ddot": 0,
        "tle_line1": "1 34321U 93036NT  25342.99177088  .00002759  00000+0  71770-3 0  9996",
        "tle_line2": "2 34321  74.0280 163.4032 0015741 293.1492 188.2253 14.50028906884322"
      },
      "geometry": {
        "type": "Point",
        "coordinates": [
          -35.1527994006513,
          46.82759626607091
        ]
      }
    },
    {
      "type": "Feature",
      "properties": {
        "norad_id": 34323,
        "name": "COSMOS 2251 DEB",
        "group": "cosmos-2251-debris",
        "lat": -33.81376308869393,
        "lon": -39.23196368887967,
        "alt_km": 621.4593388979974,
        "timestamp": "2025-12-09T09:46:48.039672+00:00",
        "meta_object_name": "COSMOS 2251 DEB",
        "meta_object_id": "1993-036NV",
        "meta_epoch": "2025-12-08T20:30:14.520672",
        "meta_mean_motion": 14.74215276,
        "meta_eccentricity": 0.00598505,
        "meta_inclination": 73.9532,
        "meta_ra_of_asc_node": 130.7377,
        "meta_arg_of_pericenter": 175.6876,
        "meta_mean_anomaly": 344.586,
        "meta_ephemeris_type": 0,
        "meta_classification_type": "U",
        "meta_norad_cat_id": 34323,
        "meta_element_set_no": 999,
        "meta_rev_at_epoch": 88382,
        "meta_bstar": 0.004379357,
        "meta_mean_motion_dot": 0.00029872,
        "meta_mean_motion_ddot": 0,
        "tle_line1": "1 34323U 93036NV  25342.85433473  .00029872  00000+0  43794-2 0  9995",
        "tle_line2": "2 34323  73.9532 130.7377 0059850 175.6876 344.5860 14.74215276883829"
      },
      "geometry": {
        "type": "Point",
        "coordinates": [
          -39.23196368887967,
          -33.81376308869393
        ]
      }
    },
    {
      "type": "Feature",
      "properties": {
        "norad_id": 34325,
        "name": "COSMOS 2251 DEB",
        "group": "cosmos-2251-debris",
        "lat": -5.9642039774264894,
        "lon": 20.411310860100194,
        "alt_km": 760.7315095808481,
        "timestamp": "2025-12-09T09:46:48.039683+00:00",
        "meta_object_name": "COSMOS 2251 DEB",
        "meta_object_id": "1993-036NX",
        "meta_epoch": "2025-12-08T16:04:32.181888",
        "meta_mean_motion": 14.04436417,
        "meta_eccentricity": 0.0192658,
        "meta_inclination": 73.8715,
        "meta_ra_of_asc_node": 199.9782,
        "meta_arg_of_pericenter": 218.139,
        "meta_mean_anomaly": 200.7891,
        "meta_ephemeris_type": 0,
        "meta_classification_type": "U",
        "meta_norad_cat_id": 34325,
        "meta_element_set_no": 999,
        "meta_rev_at_epoch": 85458,
        "meta_bstar": 0.0026265029,
        "meta_mean_motion_dot": 4.916e-05,
        "meta_mean_motion_ddot": 0,
        "tle_line1": "1 34325U 93036NX  25342.66981692  .00004916  00000+0  26265-2 0  9993",
        "tle_line2": "2 34325  73.8715 199.9782 0192658 218.1390 200.7891 14.04436417854581"
      },
      "geometry": {
        "type": "Point",
        "coordinates": [
          20.411310860100194,
          -5.9642039774264894
        ]
      }
    },
    {
      "type": "Feature",
      "properties": {
        "norad_id": 34327,
        "name": "COSMOS 2251 DEB",
        "group": "cosmos-2251-debris",
        "lat": 63.19615453134623,
        "lon": -146.81591057044722,
        "alt_km": 587.527775797189,
        "timestamp": "2025-12-09T09:46:48.039694+00:00",
        "meta_object_name": "COSMOS 2251 DEB",
        "meta_object_id": "1993-036NZ",
        "meta_epoch": "2025-12-08T22:42:55.346688",
        "meta_mean_motion": 14.89047111,
        "meta_eccentricity": 0.00325644,
        "meta_inclination": 73.9934,
        "meta_ra_of_asc_node": 179.4826,
        "meta_arg_of_pericenter": 356.6171,
        "meta_mean_anomaly": 120.9503,
        "meta_ephemeris_type": 0,
        "meta_classification_type": "U",
        "meta_norad_cat_id": 34327,
        "meta_element_set_no": 999,
        "meta_rev_at_epoch": 89451,
        "meta_bstar": 0.0013086278,
        "meta_mean_motion_dot": 0.00012434,
        "meta_mean_motion_ddot": 0,
        "tle_line1": "1 34327U 93036NZ  25342.94647392  .00012434  00000+0  13086-2 0  9993",
        "tle_line2": "2 34327  73.9934 179.4826 0032564 356.6171 120.9503 14.89047111894515"
      },
      "geometry": {
        "type": "Point",
        "coordinates": [
          -146.81591057044722,
          63.19615453134623
        ]
      }
    }
  ]
}